[{"OBJECT_NAME":"ASTROCAST-0404","OBJECT_ID":"2023-001DH","EPOCH":"2026-03-09T19:24:02.920896","MEAN_MOTION":15.26309833,"ECCENTRICITY":0.00068478,"INCLINATION":97.5646,"RA_OF_ASC_NODE":161.5422,"ARG_OF_PERICENTER":1.1317,"MEAN_ANOMALY":358.9936,"EPHEMERIS_TYPE":0,"CLASSIFICATION_TYPE":"U","NORAD_CAT_ID":55112,"ELEMENT_SET_NO":999,"REV_AT_EPOCH":12936,"BSTAR":0.00034435555,"MEAN_MOTION_DOT":8.87e-5,"MEAN_MOTION_DDOT":0},{"OBJECT_NAME":"STARLINK-31505","OBJECT_ID":"2024-049G","EPOCH":"2026-03-09T09:59:08.022912","MEAN_MOTION":15.27615839,"ECCENTRICITY":0.00014869,"INCLINATION":43.0013,"RA_OF_ASC_NODE":145.1422,"ARG_OF_PERICENTER":273.5446,"MEAN_ANOMALY":86.5236,"EPHEMERIS_TYPE":0,"CLASSIFICATION_TYPE":"U","NORAD_CAT_ID":59237,"ELEMENT_SET_NO":999,"REV_AT_EPOCH":11236,"BSTAR":7.2801246e-5,"MEAN_MOTION_DOT":1.744e-5,"MEAN_MOTION_DDOT":0}]
